NORAD_CAT_ID,OBJECT_NAME,OBJECT_TYPE,EPOCH,MEAN_MOTION,ECCENTRICITY,INCLINATION,RA_OF_ASC_NODE,ARG_OF_PERICENTER,MEAN_ANOMALY,BSTAR,MEAN_MOTION_DOT,MEAN_MOTION_DDOT,TLE_LINE0,TLE_LINE1,TLE_LINE2,SEMIMAJOR_AXIS,PERIOD,APOGEE,PERIGEE,DECAYED
52697.0,STARLINK-4018,PAYLOAD,2022-08-24 22:00:00,15.0884919,0.0002119,53.2175,192.5882,53.1304,348.3007,0.00029945,4.482e-05,0.0,0 STARLINK-4018,1 52697U 22053AT  22236.91667824  .00004482  00000-0  29945-3 0  9999,2 52697  53.2175 192.5882 0002119  53.1304 348.3007 15.08849190 15510,6917.852,95.437,541.183,538.251,0.0
52697.0,STARLINK-4018,PAYLOAD,2022-08-25 14:00:01,15.08865675,0.0002143,53.2174,189.5958,50.636,14.0043,-0.0042198999999999,-0.00066874,0.0,0 STARLINK-4018,1 52697U 22053AT  22237.58334491 -.00066874  00000-0 -42199-2 0  9994,2 52697  53.2174 189.5958 0002143  50.6360  14.0043 15.08865675  1305,6917.802,95.436,541.149,538.184,0.0
52697.0,STARLINK-4018,PAYLOAD,2022-08-25 18:00:00,15.08812622,0.0002055,53.2172,188.8471,52.5204,197.9351,0.0017272,0.00027287,0.0,0 STARLINK-4018,1 52697U 22053AT  22237.75001157  .00027287  00000-0  17272-2 0  9990,2 52697  53.2172 188.8471 0002055  52.5204 197.9351 15.08812622 15644,6917.964,95.439,541.251,538.4069999999998,0.0
52697.0,STARLINK-4018,PAYLOAD,2022-08-25 22:00:00,15.08834455,0.000207,53.2175,188.0994,53.5493,22.6865,-0.00023206,-3.979e-05,0.0,0 STARLINK-4018,1 52697U 22053AT  22237.91667824 -.00003979  00000-0 -23206-3 0  9996,2 52697  53.2175 188.0994 0002070  53.5493  22.6865 15.08834455  1307,6917.897,95.438,541.194,538.33,0.0
52697.0,STARLINK-4018,PAYLOAD,2022-08-26 14:00:01,15.08834155,0.0002130999999999,53.2173,185.107,52.3526,47.1087,-0.00081339,-0.00013208,0.0,0 STARLINK-4018,1 52697U 22053AT  22238.58335648 -.00013208  00000-0 -81339-3 0  9993,2 52697  53.2173 185.1070 0002131  52.3526  47.1087 15.08834155 15771,6917.898,95.438,541.237,538.289,0.0
52697.0,STARLINK-4018,PAYLOAD,2022-08-26 22:00:00,15.08844669,0.0002156,53.2174,183.6118,55.5838,55.3918,-0.00063174,-0.0001032999999999,0.0,0 STARLINK-4018,1 52697U 22053AT  22238.91667824 -.00010330  00000-0 -63174-3 0  9994,2 52697  53.2174 183.6118 0002156  55.5838  55.3918 15.08844669  1305,6917.866,95.437,541.2230000000002,538.24,0.0
52697.0,STARLINK-4018,PAYLOAD,2022-08-27 14:00:01,15.08843112,0.0002189999999999,53.2174,180.6182,54.3322,79.835,-0.00020418,-3.537e-05,0.0,0 STARLINK-4018,1 52697U 22053AT  22239.58334491 -.00003537  00000-0 -20418-3 0  9994,2 52697  53.2174 180.6182 0002190  54.3322  79.8350 15.08843112  1309,6917.871,95.437,541.251,538.221,0.0
52697.0,STARLINK-4018,PAYLOAD,2022-08-27 22:00:00,15.08860876,0.0002246,53.2175,179.1219,57.1192,88.6413,-0.00071402,-0.00011641,0.0,0 STARLINK-4018,1 52697U 22053AT  22239.91667824 -.00011641  00000-0 -71402-3 0  9994,2 52697  53.2175 179.1219 0002246  57.1192  88.6413 15.08860876  1306,6917.816999999999,95.436,541.235,538.128,0.0
52697.0,STARLINK-4018,PAYLOAD,2022-08-28 06:00:00,15.08839177,0.0002360999999999,53.2176,177.6272,51.5256,105.8559,0.0018783,0.00029732,0.0,0 STARLINK-4018,1 52697U 22053AT  22240.25001157  .00029732  00000-0  18783-2 0  9994,2 52697  53.2176 177.6272 0002361  51.5256 105.8559 15.08839177 16024,6917.8830000000025,95.438,541.381,538.115,0.0
52697.0,STARLINK-4018,PAYLOAD,2022-08-28 14:00:01,15.08841909,0.0002177999999999,53.2177,176.1292,54.0234,114.9736,-0.00086421,-0.00014017,0.0,0 STARLINK-4018,1 52697U 22053AT  22240.58334491 -.00014017  00000-0 -86421-3 0  9997,2 52697  53.2177 176.1292 0002178  54.0234 114.9736 15.08841909  1300,6917.875,95.437,541.246,538.2330000000002,0.0
52697.0,STARLINK-4018,PAYLOAD,2022-08-28 20:00:01,15.08834539,0.0002208,53.2177,175.0067,56.7144,30.9733,0.0011762,0.00018478,0.0,0 STARLINK-4018,1 52697U 22053AT  22240.83334491  .00018478  00000-0  11762-2 0  9993,2 52697  53.2177 175.0067 0002208  56.7144  30.9733 15.08834539 16111,6917.897,95.438,541.29,538.235,0.0
52697.0,STARLINK-4018,PAYLOAD,2022-08-28 22:00:00,15.08851002,0.0002234,53.2178,174.6331,55.97,124.6119,-0.00092403,-0.00014969,0.0,0 STARLINK-4018,1 52697U 22053AT  22240.91667824 -.00014969  00000-0 -92403-3 0  9996,2 52697  53.2178 174.6331 0002234  55.9700 124.6119 15.08851002  1307,6917.847,95.437,541.257,538.1659999999998,0.0
52697.0,STARLINK-4018,PAYLOAD,2022-08-29 04:00:00,15.08842228,0.0002351,53.2178,173.5122,51.6768,47.6052,-0.0017707999999999,-0.00028363,0.0,0 STARLINK-4018,1 52697U 22053AT  22241.16667824 -.00028363  00000-0 -17708-2 0  9991,2 52697  53.2178 173.5122 0002351  51.6768  47.6052 15.08842228 16160,6917.874,95.437,541.365,538.112,0.0
52697.0,STARLINK-4018,PAYLOAD,2022-08-29 14:00:01,15.08812521,0.000216,53.218,171.6403,52.9491,150.8201,0.0009013,0.00014075,0.0,0 STARLINK-4018,1 52697U 22053AT  22241.58334491  .00014075  00000-0  90130-3 0  9992,2 52697  53.2180 171.6403 0002160  52.9491 150.8201 15.08812521  1305,6917.964,95.439,541.3240000000002,538.335,0.0
52697.0,STARLINK-4018,PAYLOAD,2022-08-29 22:00:00,15.08841438,0.0002243,53.2182,170.1444,55.1694,160.1646,-0.0010327,-0.00016687,0.0,0 STARLINK-4018,1 52697U 22053AT  22241.91667824 -.00016687  00000-0 -10327-2 0  9990,2 52697  53.2182 170.1444 0002243  55.1694 160.1646 15.08841438 16276,6917.876,95.437,541.293,538.189,0.0
52697.0,STARLINK-4018,PAYLOAD,2022-08-30 14:00:01,15.088362300000002,0.0002210999999999,53.2183,167.1514,54.785,183.7309,0.00011737,1.58e-05,0.0,0 STARLINK-4018,1 52697U 22053AT  22242.58334491  .00001580  00000-0  11737-3 0  9996,2 52697  53.2183 167.1514 0002211  54.7850 183.7309 15.08836230  1304,6917.892,95.438,541.286,538.227,0.0
52697.0,STARLINK-4018,PAYLOAD,2022-08-30 22:00:00,15.0884606,0.0002236,53.2184,165.6557,55.2302,194.8794,-0.0021374,-0.00034151,0.0,0 STARLINK-4018,1 52697U 22053AT  22242.91667824 -.00034151  00000-0 -21374-2 0  9991,2 52697  53.2184 165.6557 0002236  55.2302 194.8794 15.08846060 16422,6917.861999999999,95.437,541.274,538.18,0.0
52697.0,STARLINK-4018,PAYLOAD,2022-08-31 12:00:00,15.08839869,0.0002214,53.2182,163.037,54.3795,126.0005,-0.00096878,-0.00015674,0.0,0 STARLINK-4018,1 52697U 22053AT  22243.50001157 -.00015674  00000-0 -96878-3 0  9999,2 52697  53.2182 163.0370 0002214  54.3795 126.0005 15.08839869 16518,6917.880999999999,95.438,541.2769999999998,538.214,0.0
52697.0,STARLINK-4018,PAYLOAD,2022-08-31 14:00:01,15.08820776,0.0002179,53.2182,162.6625,55.6504,217.6365,0.0022712,0.00036025,0.0,0 STARLINK-4018,1 52697U 22053AT  22243.58334491  .00036025  00000-0  22712-2 0  9993,2 52697  53.2182 162.6625 0002179  55.6504 217.6365 15.08820776  1302,6917.939,95.439,541.312,538.297,0.0
52697.0,STARLINK-4018,PAYLOAD,2022-08-31 20:00:01,15.08852251,0.000221,53.218,161.5419,58.4199,133.5493,0.00035177,5.317e-05,0.0,0 STARLINK-4018,1 52697U 22053AT  22243.83334491  .00005317  00000-0  35177-3 0  9991,2 52697  53.2180 161.5419 0002210  58.4199 133.5493 15.08852251 16561,6917.843000000003,95.437,541.237,538.179,0.0
52697.0,STARLINK-4018,PAYLOAD,2022-08-31 22:00:00,15.08872759,0.0002215,53.2181,161.1689,56.9407,227.926,-0.0027890999999999,-0.00044445,0.0,0 STARLINK-4018,1 52697U 22053AT  22243.91667824 -.00044445  00000-0 -27891-2 0  9999,2 52697  53.2181 161.1689 0002215  56.9407 227.9260 15.08872759  1308,6917.78,95.435,541.178,538.113,0.0
52697.0,STARLINK-4018,PAYLOAD,2022-09-01 04:00:01,15.08833488,0.0002304,53.2181,160.0457,52.1743,151.4662,-0.00036256,-6.053e-05,0.0,0 STARLINK-4018,1 52697U 22053AT  22244.16668981 -.00006053  00000-0 -36256-3 0  9991,2 52697  53.2181 160.0457 0002304  52.1743 151.4662 15.08833488 16612,6917.9,95.438,541.359,538.1709999999998,0.0
52697.0,STARLINK-4018,PAYLOAD,2022-09-01 14:00:01,15.08805418,0.0002084,53.2178,158.1735,56.3584,251.7691,0.0025788,0.00040954,0.0,0 STARLINK-4018,1 52697U 22053AT  22244.58335648  .00040954  00000-0  25788-2 0  9991,2 52697  53.2178 158.1735 0002084  56.3584 251.7691 15.08805418  1307,6917.986,95.44,541.293,538.409,0.0
52697.0,STARLINK-4018,PAYLOAD,2022-09-01 22:00:00,15.0884843,0.0002149,53.2178,156.6781,56.7293,262.9029,-0.0013652,-0.00021955,0.0,0 STARLINK-4018,1 52697U 22053AT  22244.91667824 -.00021955  00000-0 -13652-2 0  9991,2 52697  53.2178 156.6781 0002149  56.7293 262.9029 15.08848430  1304,6917.855,95.437,541.206,538.2330000000002,0.0
52697.0,STARLINK-4018,PAYLOAD,2022-09-02 06:00:00,15.08825152,0.0002238,53.2172,155.1826,52.9042,278.3211,0.0020172999999999,0.00031951,0.0,0 STARLINK-4018,1 52697U 22053AT  22245.25001157  .00031951  00000-0  20173-2 0  9991,2 52697  53.2172 155.1826 0002238  52.9042 278.3211 15.08825152 16778,6917.926,95.438,541.339,538.243,0.0
52697.0,STARLINK-4018,PAYLOAD,2022-09-02 14:00:01,15.08817004,0.0002098,53.2172,153.6846,59.2755,283.545,0.0027993,0.00044517,0.0,0 STARLINK-4018,1 52697U 22053AT  22245.58334491  .00044517  00000-0  27993-2 0  9996,2 52697  53.2172 153.6846 0002098  59.2755 283.5450 15.08817004  1301,6917.951,95.439,541.2669999999998,538.364,0.0
52697.0,STARLINK-4018,PAYLOAD,2022-09-02 20:00:01,15.08865589,0.0002129,53.2173,152.5629,60.6109,200.8908,-0.0021864999999999,-0.00034943,0.0,0 STARLINK-4018,1 52697U 22053AT  22245.83334491 -.00034943  00000-0 -21865-2 0  9990,2 52697  53.2173 152.5629 0002129  60.6109 200.8908 15.08865589 16861,6917.802,95.436,541.14,538.194,0.0
52697.0,STARLINK-4018,PAYLOAD,2022-09-02 22:00:01,15.08873279,0.0002154999999999,53.2172,152.1892,58.0777,296.3885,-0.0041671999999999,-0.00066064,0.0,0 STARLINK-4018,1 52697U 22053AT  22245.91668981 -.00066064  00000-0 -41672-2 0  9990,2 52697  53.2172 152.1892 0002155  58.0777 296.3885 15.08873279  1301,6917.779,95.435,541.134,538.153,0.0
52697.0,STARLINK-4018,PAYLOAD,2022-09-03 14:00:01,15.08808664,0.0002046999999999,53.2167,149.1955,60.0134,317.5885,0.0032803,0.00052261,0.0,0 STARLINK-4018,1 52697U 22053AT  22246.58334491  .00052261  00000-0  32803-2 0  9998,2 52697  53.2167 149.1955 0002047  60.0134 317.5885 15.08808664 16972,6917.976,95.44,541.257,538.425,0.0
